STARLINK-31883          
1 60020U 24111E   25224.51387691 -.00000570  00000+0 -71314-5 0  9996
2 60020  53.1608 327.5214 0001118  94.8735 265.2393 15.30184106 66959
STARLINK-31967          
1 60021U 24111F   25224.52642974  .00000971  00000+0  44932-4 0  9994
2 60021  53.1609 326.8844 0001220 115.4251 244.6876 15.30181268 67043
STARLINK-31982          
1 60022U 24111G   25224.52009506  .00003948  00000+0  14546-3 0  9997
2 60022  53.1606 326.8542 0001031  97.1031 263.0087 15.30176764 67020
STARLINK-31992          
1 60023U 24111H   25224.52959286  .00001512  00000+0  63213-4 0  9998
2 60023  53.1599 326.9049 0001182 109.4163 250.6966 15.30178948 67029
STARLINK-31990          
1 60024U 24111J   25224.54964011  .00006013  00000+0  21490-3 0  9994
2 60024  53.1617 327.0345 0001446  99.9069 260.2095 15.30214581 67016
STARLINK-31864          
1 60025U 24111K   25224.30348362  .00039738  00000+0  13063-2 0  9990
2 60025  53.1618 328.2753 0001325  37.1419 322.9673 15.31183638 66974
STARLINK-31939          
1 60026U 24111L   25224.53593045  .00001997  00000+0  79594-4 0  9995
2 60026  53.1604 326.9466 0001208  73.3809 286.7324 15.30169786 67014
STARLINK-32012          
1 60027U 24111M   25224.53909365  .00002563  00000+0  98739-4 0  9994
2 60027  53.1602 326.9633 0001070  76.0166 284.0954 15.30165433 67017
STARLINK-32008          
1 60028U 24111N   25224.54331197  .00002369  00000+0  92135-4 0  9996
2 60028  53.1604 326.9887 0001367  99.0512 261.0644 15.30176107 67011
STARLINK-32006          
1 60029U 24111P   25224.55280611  .00003758  00000+0  13902-3 0  9999
2 60029  53.1618 327.0529 0001453 100.2983 259.8182 15.30178181 67011
STARLINK-32011          
1 60030U 24111Q   25224.52219323  .00001035  00000+0  47045-4 0  9992
2 60030  53.1608 326.8651 0000738 164.4744 195.6279 15.30200787 67019
STARLINK-31878          
1 60031U 24111R   25224.43882646  .00003153  00000+0  11857-3 0  9991
2 60031  53.1599 275.8068 0001213  80.6263 279.4875 15.30193718 67476
STARLINK-32017          
1 60032U 24111S   25224.55703050  .00001457  00000+0  61339-4 0  9992
2 60032  53.1620 327.0983 0001311  80.0876 280.0272 15.30184204 67010
STARLINK-32005          
1 60034U 24111U   25224.54647724  .00001518  00000+0  63408-4 0  9995
2 60034  53.1606 327.0119 0001176  90.1447 269.9689 15.30180054 66906
STARLINK-31981          
1 60035U 24111V   25224.56546739  .00021627  00000+0  74055-3 0  9994
2 60035  53.1597 327.1291 0001134  98.3655 261.7474 15.30184394 66940
STARLINK-31985          
1 60036U 24111W   25224.43167863  .00003267  00000+0  12249-3 0  9995
2 60036  53.1616 327.7120 0001256  92.0269 268.0875 15.30171600 66937
STARLINK-31918          
1 60037U 24111X   25224.53276269  .00002940  00000+0  11145-3 0  9999
2 60037  53.1606 326.9265 0001037  95.7373 264.3746 15.30170062 66949
