[{"OBJECT_NAME":"STARLINK-31883","OBJECT_ID":"2024-111E","EPOCH":"2025-08-12T12:19:58.965024","MEAN_MOTION":15.30184106,"ECCENTRICITY":0.0001118,"INCLINATION":53.1608,"RA_OF_ASC_NODE":327.5214,"ARG_OF_PERICENTER":94.8735,"MEAN_ANOMALY":265.2393,"EPHEMERIS_TYPE":0,"CLASSIFICATION_TYPE":"U","NORAD_CAT_ID":60020,"ELEMENT_SET_NO":999,"REV_AT_EPOCH":6695,"BSTAR":-7.1314e-6,"MEAN_MOTION_DOT":-5.7e-6,"MEAN_MOTION_DDOT":0},{"OBJECT_NAME":"STARLINK-31967","OBJECT_ID":"2024-111F","EPOCH":"2025-08-12T12:38:03.529536","MEAN_MOTION":15.30181268,"ECCENTRICITY":0.000122,"INCLINATION":53.1609,"RA_OF_ASC_NODE":326.8844,"ARG_OF_PERICENTER":115.4251,"MEAN_ANOMALY":244.6876,"EPHEMERIS_TYPE":0,"CLASSIFICATION_TYPE":"U","NORAD_CAT_ID":60021,"ELEMENT_SET_NO":999,"REV_AT_EPOCH":6704,"BSTAR":4.4932e-5,"MEAN_MOTION_DOT":9.71e-6,"MEAN_MOTION_DDOT":0},{"OBJECT_NAME":"STARLINK-31982","OBJECT_ID":"2024-111G","EPOCH":"2025-08-12T12:28:56.213184","MEAN_MOTION":15.30176764,"ECCENTRICITY":0.0001031,"INCLINATION":53.1606,"RA_OF_ASC_NODE":326.8542,"ARG_OF_PERICENTER":97.1031,"MEAN_ANOMALY":263.0087,"EPHEMERIS_TYPE":0,"CLASSIFICATION_TYPE":"U","NORAD_CAT_ID":60022,"ELEMENT_SET_NO":999,"REV_AT_EPOCH":6702,"BSTAR":0.00014546,"MEAN_MOTION_DOT":3.948e-5,"MEAN_MOTION_DDOT":0},{"OBJECT_NAME":"STARLINK-31992","OBJECT_ID":"2024-111H","EPOCH":"2025-08-12T12:42:36.823104","MEAN_MOTION":15.30178948,"ECCENTRICITY":0.0001182,"INCLINATION":53.1599,"RA_OF_ASC_NODE":326.9049,"ARG_OF_PERICENTER":109.4163,"MEAN_ANOMALY":250.6966,"EPHEMERIS_TYPE":0,"CLASSIFICATION_TYPE":"U","NORAD_CAT_ID":60023,"ELEMENT_SET_NO":999,"REV_AT_EPOCH":6702,"BSTAR":6.3213e-5,"MEAN_MOTION_DOT":1.512e-5,"MEAN_MOTION_DDOT":0},{"OBJECT_NAME":"STARLINK-31990","OBJECT_ID":"2024-111J","EPOCH":"2025-08-12T13:11:28.905504","MEAN_MOTION":15.30214581,"ECCENTRICITY":0.0001446,"INCLINATION":53.1617,"RA_OF_ASC_NODE":327.0345,"ARG_OF_PERICENTER":99.9069,"MEAN_ANOMALY":260.2095,"EPHEMERIS_TYPE":0,"CLASSIFICATION_TYPE":"U","NORAD_CAT_ID":60024,"ELEMENT_SET_NO":999,"REV_AT_EPOCH":6701,"BSTAR":0.0002149,"MEAN_MOTION_DOT":6.013e-5,"MEAN_MOTION_DDOT":0},{"OBJECT_NAME":"STARLINK-31864","OBJECT_ID":"2024-111K","EPOCH":"2025-08-12T07:17:00.984768","MEAN_MOTION":15.31183638,"ECCENTRICITY":0.0001325,"INCLINATION":53.1618,"RA_OF_ASC_NODE":328.2753,"ARG_OF_PERICENTER":37.1419,"MEAN_ANOMALY":322.9673,"EPHEMERIS_TYPE":0,"CLASSIFICATION_TYPE":"U","NORAD_CAT_ID":60025,"ELEMENT_SET_NO":999,"REV_AT_EPOCH":6697,"BSTAR":0.0013063,"MEAN_MOTION_DOT":0.00039738,"MEAN_MOTION_DDOT":0},{"OBJECT_NAME":"STARLINK-31939","OBJECT_ID":"2024-111L","EPOCH":"2025-08-12T12:51:44.390880","MEAN_MOTION":15.30169786,"ECCENTRICITY":0.0001208,"INCLINATION":53.1604,"RA_OF_ASC_NODE":326.9466,"ARG_OF_PERICENTER":73.3809,"MEAN_ANOMALY":286.7324,"EPHEMERIS_TYPE":0,"CLASSIFICATION_TYPE":"U","NORAD_CAT_ID":60026,"ELEMENT_SET_NO":999,"REV_AT_EPOCH":6701,"BSTAR":7.9594e-5,"MEAN_MOTION_DOT":1.997e-5,"MEAN_MOTION_DDOT":0},{"OBJECT_NAME":"STARLINK-32012","OBJECT_ID":"2024-111M","EPOCH":"2025-08-12T12:56:17.691360","MEAN_MOTION":15.30165433,"ECCENTRICITY":0.000107,"INCLINATION":53.1602,"RA_OF_ASC_NODE":326.9633,"ARG_OF_PERICENTER":76.0166,"MEAN_ANOMALY":284.0954,"EPHEMERIS_TYPE":0,"CLASSIFICATION_TYPE":"U","NORAD_CAT_ID":60027,"ELEMENT_SET_NO":999,"REV_AT_EPOCH":6701,"BSTAR":9.8739e-5,"MEAN_MOTION_DOT":2.563e-5,"MEAN_MOTION_DDOT":0},{"OBJECT_NAME":"STARLINK-32008","OBJECT_ID":"2024-111N","EPOCH":"2025-08-12T13:02:22.154208","MEAN_MOTION":15.30176107,"ECCENTRICITY":0.0001367,"INCLINATION":53.1604,"RA_OF_ASC_NODE":326.9887,"ARG_OF_PERICENTER":99.0512,"MEAN_ANOMALY":261.0644,"EPHEMERIS_TYPE":0,"CLASSIFICATION_TYPE":"U","NORAD_CAT_ID":60028,"ELEMENT_SET_NO":999,"REV_AT_EPOCH":6701,"BSTAR":9.2135e-5,"MEAN_MOTION_DOT":2.369e-5,"MEAN_MOTION_DDOT":0},{"OBJECT_NAME":"STARLINK-32006","OBJECT_ID":"2024-111P","EPOCH":"2025-08-12T13:16:02.447904","MEAN_MOTION":15.30178181,"ECCENTRICITY":0.0001453,"INCLINATION":53.1618,"RA_OF_ASC_NODE":327.0529,"ARG_OF_PERICENTER":100.2983,"MEAN_ANOMALY":259.8182,"EPHEMERIS_TYPE":0,"CLASSIFICATION_TYPE":"U","NORAD_CAT_ID":60029,"ELEMENT_SET_NO":999,"REV_AT_EPOCH":6701,"BSTAR":0.00013902,"MEAN_MOTION_DOT":3.758e-5,"MEAN_MOTION_DDOT":0},{"OBJECT_NAME":"STARLINK-32011","OBJECT_ID":"2024-111Q","EPOCH":"2025-08-12T12:31:57.495072","MEAN_MOTION":15.30200787,"ECCENTRICITY":7.38e-5,"INCLINATION":53.1608,"RA_OF_ASC_NODE":326.8651,"ARG_OF_PERICENTER":164.4744,"MEAN_ANOMALY":195.6279,"EPHEMERIS_TYPE":0,"CLASSIFICATION_TYPE":"U","NORAD_CAT_ID":60030,"ELEMENT_SET_NO":999,"REV_AT_EPOCH":6701,"BSTAR":4.7045e-5,"MEAN_MOTION_DOT":1.035e-5,"MEAN_MOTION_DDOT":0},{"OBJECT_NAME":"STARLINK-31878","OBJECT_ID":"2024-111R","EPOCH":"2025-08-12T10:31:54.606144","MEAN_MOTION":15.30193718,"ECCENTRICITY":0.0001213,"INCLINATION":53.1599,"RA_OF_ASC_NODE":275.8068,"ARG_OF_PERICENTER":80.6263,"MEAN_ANOMALY":279.4875,"EPHEMERIS_TYPE":0,"CLASSIFICATION_TYPE":"U","NORAD_CAT_ID":60031,"ELEMENT_SET_NO":999,"REV_AT_EPOCH":6747,"BSTAR":0.00011857,"MEAN_MOTION_DOT":3.153e-5,"MEAN_MOTION_DDOT":0},{"OBJECT_NAME":"STARLINK-32017","OBJECT_ID":"2024-111S","EPOCH":"2025-08-12T13:22:07.435200","MEAN_MOTION":15.30184204,"ECCENTRICITY":0.0001311,"INCLINATION":53.162,"RA_OF_ASC_NODE":327.0983,"ARG_OF_PERICENTER":80.0876,"MEAN_ANOMALY":280.0272,"EPHEMERIS_TYPE":0,"CLASSIFICATION_TYPE":"U","NORAD_CAT_ID":60032,"ELEMENT_SET_NO":999,"REV_AT_EPOCH":6701,"BSTAR":6.1339e-5,"MEAN_MOTION_DOT":1.457e-5,"MEAN_MOTION_DDOT":0},{"OBJECT_NAME":"STARLINK-32005","OBJECT_ID":"2024-111U","EPOCH":"2025-08-12T13:06:55.633536","MEAN_MOTION":15.30180054,"ECCENTRICITY":0.0001176,"INCLINATION":53.1606,"RA_OF_ASC_NODE":327.0119,"ARG_OF_PERICENTER":90.1447,"MEAN_ANOMALY":269.9689,"EPHEMERIS_TYPE":0,"CLASSIFICATION_TYPE":"U","NORAD_CAT_ID":60034,"ELEMENT_SET_NO":999,"REV_AT_EPOCH":6690,"BSTAR":6.3408e-5,"MEAN_MOTION_DOT":1.518e-5,"MEAN_MOTION_DDOT":0},{"OBJECT_NAME":"STARLINK-31981","OBJECT_ID":"2024-111V","EPOCH":"2025-08-12T13:34:16.382496","MEAN_MOTION":15.30184394,"ECCENTRICITY":0.0001134,"INCLINATION":53.1597,"RA_OF_ASC_NODE":327.1291,"ARG_OF_PERICENTER":98.3655,"MEAN_ANOMALY":261.7474,"EPHEMERIS_TYPE":0,"CLASSIFICATION_TYPE":"U","NORAD_CAT_ID":60035,"ELEMENT_SET_NO":999,"REV_AT_EPOCH":6694,"BSTAR":0.00074055,"MEAN_MOTION_DOT":0.00021627,"MEAN_MOTION_DDOT":0},{"OBJECT_NAME":"STARLINK-31985","OBJECT_ID":"2024-111W","EPOCH":"2025-08-12T10:21:37.033632","MEAN_MOTION":15.301716,"ECCENTRICITY":0.0001256,"INCLINATION":53.1616,"RA_OF_ASC_NODE":327.712,"ARG_OF_PERICENTER":92.0269,"MEAN_ANOMALY":268.0875,"EPHEMERIS_TYPE":0,"CLASSIFICATION_TYPE":"U","NORAD_CAT_ID":60036,"ELEMENT_SET_NO":999,"REV_AT_EPOCH":6693,"BSTAR":0.00012249,"MEAN_MOTION_DOT":3.267e-5,"MEAN_MOTION_DDOT":0},{"OBJECT_NAME":"STARLINK-31918","OBJECT_ID":"2024-111X","EPOCH":"2025-08-12T12:47:10.696416","MEAN_MOTION":15.30170062,"ECCENTRICITY":0.0001037,"INCLINATION":53.1606,"RA_OF_ASC_NODE":326.9265,"ARG_OF_PERICENTER":95.7373,"MEAN_ANOMALY":264.3746,"EPHEMERIS_TYPE":0,"CLASSIFICATION_TYPE":"U","NORAD_CAT_ID":60037,"ELEMENT_SET_NO":999,"REV_AT_EPOCH":6694,"BSTAR":0.00011145,"MEAN_MOTION_DOT":2.94e-5,"MEAN_MOTION_DDOT":0}]
